{
  "links" : {
    "next" : "https://api.nasa.gov/neo/rest/v1/neo/browse?page=23&size=20&api_key=jqAGvNAwUIBu4fl9FSOjdm3V4F7hIglRzI6pdX9d",
    "prev" : "https://api.nasa.gov/neo/rest/v1/neo/browse?page=21&size=20&api_key=jqAGvNAwUIBu4fl9FSOjdm3V4F7hIglRzI6pdX9d",
    "self" : "https://api.nasa.gov/neo/rest/v1/neo/browse?page=22&size=20&api_key=jqAGvNAwUIBu4fl9FSOjdm3V4F7hIglRzI6pdX9d"
  },
  "page" : {
    "size" : 20,
    "total_elements" : 20750,
    "total_pages" : 1038,
    "number" : 22
  },
  "near_earth_objects" : [ {
    "links" : {
      "self" : "https://api.nasa.gov/neo/rest/v1/neo/3291165?api_key=jqAGvNAwUIBu4fl9FSOjdm3V4F7hIglRzI6pdX9d"
    },
    "neo_reference_id" : "3291165",
    "name" : "(2005 SR4)",
    "designation" : "2005 SR4",
    "nasa_jpl_url" : "http://ssd.jpl.nasa.gov/sbdb.cgi?sstr=3291165",
    "absolute_magnitude_h" : 23.5,
    "estimated_diameter" : {
      "kilometers" : {
        "estimated_diameter_min" : 0.0530340723,
        "estimated_diameter_max" : 0.1185877909
      },
      "meters" : {
        "estimated_diameter_min" : 53.0340723319,
        "estimated_diameter_max" : 118.5877908577
      },
      "miles" : {
        "estimated_diameter_min" : 0.0329538346,
        "estimated_diameter_max" : 0.0736870142
      },
      "feet" : {
        "estimated_diameter_min" : 173.9963058693,
        "estimated_diameter_max" : 389.0675677576
      }
    },
    "is_potentially_hazardous_asteroid" : false,
    "close_approach_data" : [ {
      "close_approach_date" : "2005-08-23",
      "epoch_date_close_approach" : 1124780400000,
      "relative_velocity" : {
        "kilometers_per_second" : "5.6765322064",
        "kilometers_per_hour" : "20435.5159430794",
        "miles_per_hour" : "12697.8348925207"
      },
      "miss_distance" : {
        "astronomical" : "0.1760164304",
        "lunar" : "68.4703903198",
        "kilometers" : "26331684",
        "miles" : "16361750"
      },
      "orbiting_body" : "Earth"
    } ],
    "orbital_data" : {
      "orbit_id" : "10",
      "orbit_determination_date" : "2017-04-06 09:10:27",
      "first_observation_date" : "2005-09-24",
      "last_observation_date" : "2005-10-23",
      "data_arc_in_days" : 29,
      "observations_used" : 22,
      "orbit_uncertainty" : "7",
      "minimum_orbit_intersection" : ".149401",
      "jupiter_tisserand_invariant" : "3.514",
      "epoch_osculation" : "2458600.5",
      "eccentricity" : ".4737798127746445",
      "semi_major_axis" : "2.185960467046965",
      "inclination" : "6.829561246826001",
      "ascending_node_longitude" : "357.7323776988933",
      "orbital_period" : "1180.488830149241",
      "perihelion_distance" : "1.15029652623668",
      "perihelion_argument" : "332.9858371766712",
      "aphelion_distance" : "3.221624407857251",
      "perihelion_time" : "2458321.673446076708",
      "mean_anomaly" : "85.03050333792244",
      "mean_motion" : ".3049584128250394",
      "equinox" : "J2000",
      "orbit_class" : {
        "orbit_class_type" : "AMO",
        "orbit_class_range" : "1.017 AU < q (perihelion) < 1.3 AU",
        "orbit_class_description" : "Near-Earth asteroid orbits similar to that of 1221 Amor"
      }
    },
    "is_sentry_object" : false
  }, {
    "links" : {
      "self" : "https://api.nasa.gov/neo/rest/v1/neo/3291168?api_key=jqAGvNAwUIBu4fl9FSOjdm3V4F7hIglRzI6pdX9d"
    },
    "neo_reference_id" : "3291168",
    "name" : "(2005 SV4)",
    "designation" : "2005 SV4",
    "nasa_jpl_url" : "http://ssd.jpl.nasa.gov/sbdb.cgi?sstr=3291168",
    "absolute_magnitude_h" : 22.7,
    "estimated_diameter" : {
      "kilometers" : {
        "estimated_diameter_min" : 0.0766575574,
        "estimated_diameter_max" : 0.1714115092
      },
      "meters" : {
        "estimated_diameter_min" : 76.6575573531,
        "estimated_diameter_max" : 171.4115092306
      },
      "miles" : {
        "estimated_diameter_min" : 0.0476327831,
        "estimated_diameter_max" : 0.1065101409
      },
      "feet" : {
        "estimated_diameter_min" : 251.5011804664,
        "estimated_diameter_max" : 562.3737359442
      }
    },
    "is_potentially_hazardous_asteroid" : false,
    "close_approach_data" : [ {
      "close_approach_date" : "2005-09-13",
      "epoch_date_close_approach" : 1126594800000,
      "relative_velocity" : {
        "kilometers_per_second" : "12.3318986627",
        "kilometers_per_hour" : "44394.8351857844",
        "miles_per_hour" : "27585.2241186337"
      },
      "miss_distance" : {
        "astronomical" : "0.0523293856",
        "lunar" : "20.3561306",
        "kilometers" : "7828364.5",
        "miles" : "4864320"
      },
      "orbiting_body" : "Earth"
    }, {
      "close_approach_date" : "2042-10-12",
      "epoch_date_close_approach" : 2296710000000,
      "relative_velocity" : {
        "kilometers_per_second" : "23.091961129",
        "kilometers_per_hour" : "83131.0600644979",
        "miles_per_hour" : "51654.4078495209"
      },
      "miss_distance" : {
        "astronomical" : "0.4016028252",
        "lunar" : "156.2234954834",
        "kilometers" : "60078928",
        "miles" : "37331316"
      },
      "orbiting_body" : "Earth"
    }, {
      "close_approach_date" : "2131-06-04",
      "epoch_date_close_approach" : 5093996400000,
      "relative_velocity" : {
        "kilometers_per_second" : "22.4753868476",
        "kilometers_per_hour" : "80911.392651342",
        "miles_per_hour" : "50275.1928393853"
      },
      "miss_distance" : {
        "astronomical" : "0.4492729566",
        "lunar" : "174.7671813965",
        "kilometers" : "67210280",
        "miles" : "41762532"
      },
      "orbiting_body" : "Earth"
    } ],
    "orbital_data" : {
      "orbit_id" : "10",
      "orbit_determination_date" : "2017-04-06 09:10:27",
      "first_observation_date" : "2005-09-25",
      "last_observation_date" : "2005-10-22",
      "data_arc_in_days" : 27,
      "observations_used" : 39,
      "orbit_uncertainty" : "7",
      "minimum_orbit_intersection" : ".0219934",
      "jupiter_tisserand_invariant" : "3.249",
      "epoch_osculation" : "2458600.5",
      "eccentricity" : ".5973020817429764",
      "semi_major_axis" : "2.396472544053151",
      "inclination" : "8.109585182085354",
      "ascending_node_longitude" : "173.560184069489",
      "orbital_period" : "1355.055594116258",
      "perihelion_distance" : ".9650545046503171",
      "perihelion_argument" : "141.5572843954783",
      "aphelion_distance" : "3.827890583455984",
      "perihelion_time" : "2459031.566613929082",
      "mean_anomaly" : "245.4777754593325",
      "mean_motion" : ".2656717566151117",
      "equinox" : "J2000",
      "orbit_class" : {
        "orbit_class_type" : "APO",
        "orbit_class_range" : "a (semi-major axis) > 1.0 AU; q (perihelion) < 1.017 AU",
        "orbit_class_description" : "Near-Earth asteroid orbits which cross the Earth’s orbit similar to that of 1862 Apollo"
      }
    },
    "is_sentry_object" : false
  }, {
    "links" : {
      "self" : "https://api.nasa.gov/neo/rest/v1/neo/3291227?api_key=jqAGvNAwUIBu4fl9FSOjdm3V4F7hIglRzI6pdX9d"
    },
    "neo_reference_id" : "3291227",
    "name" : "(2005 SW9)",
    "designation" : "2005 SW9",
    "nasa_jpl_url" : "http://ssd.jpl.nasa.gov/sbdb.cgi?sstr=3291227",
    "absolute_magnitude_h" : 19.6,
    "estimated_diameter" : {
      "kilometers" : {
        "estimated_diameter_min" : 0.3195618867,
        "estimated_diameter_max" : 0.7145621017
      },
      "meters" : {
        "estimated_diameter_min" : 319.5618867213,
        "estimated_diameter_max" : 714.5621017269
      },
      "miles" : {
        "estimated_diameter_min" : 0.1985664891,
        "estimated_diameter_max" : 0.4440081677
      },
      "feet" : {
        "estimated_diameter_min" : 1048.4314204307,
        "estimated_diameter_max" : 2344.3639258298
      }
    },
    "is_potentially_hazardous_asteroid" : false,
    "close_approach_data" : [ {
      "close_approach_date" : "2005-10-10",
      "epoch_date_close_approach" : 1128927600000,
      "relative_velocity" : {
        "kilometers_per_second" : "15.6925155937",
        "kilometers_per_hour" : "56493.0561372534",
        "miles_per_hour" : "35102.5881315061"
      },
      "miss_distance" : {
        "astronomical" : "0.1492807911",
        "lunar" : "58.070224762",
        "kilometers" : "22332088",
        "miles" : "13876516"
      },
      "orbiting_body" : "Earth"
    } ],
    "orbital_data" : {
      "orbit_id" : "8",
      "orbit_determination_date" : "2017-04-06 09:10:26",
      "first_observation_date" : "2005-09-25",
      "last_observation_date" : "2005-09-29",
      "data_arc_in_days" : 4,
      "observations_used" : 33,
      "orbit_uncertainty" : "9",
      "minimum_orbit_intersection" : ".118081",
      "jupiter_tisserand_invariant" : "3.513",
      "epoch_osculation" : "2453640.5",
      "eccentricity" : ".5847696620905384",
      "semi_major_axis" : "2.055890591873388",
      "inclination" : "15.72057289825034",
      "ascending_node_longitude" : "226.6801054918467",
      "orbital_period" : "1076.709204080527",
      "perihelion_distance" : ".8536681451684701",
      "perihelion_argument" : "194.4562129761647",
      "aphelion_distance" : "3.258113038578307",
      "perihelion_time" : "2453681.429766769945",
      "mean_anomaly" : "346.3150458997301",
      "mean_motion" : ".334352115348942",
      "equinox" : "J2000",
      "orbit_class" : {
        "orbit_class_type" : "APO",
        "orbit_class_range" : "a (semi-major axis) > 1.0 AU; q (perihelion) < 1.017 AU",
        "orbit_class_description" : "Near-Earth asteroid orbits which cross the Earth’s orbit similar to that of 1862 Apollo"
      }
    },
    "is_sentry_object" : false
  } ]
}